LANDSAT 9               
1 49260U 21088A   23222.13672124  .00000517  00000+0  12491-3 0  9999
2 49260  98.2268 291.3754 0001427 106.9155 253.2200 14.57108894 99245
